IRIDIUM 921             
1 24873U 97034E   24287.34562225  .00103557  00000+0  16172-2 0  9998
2 24873  86.3763 229.0846 0009128 109.2254 250.9995 15.53403310493700
IRIDIUM 26              
1 24903U 97043A   24287.39788065  .00001977  00000+0  66491-3 0  9992
2 24903  86.4007 214.1491 0002394  89.5980 270.5492 14.36692592421300
IRIDIUM 22              
1 24907U 97043E   24287.40623101  .00001811  00000+0  62265-3 0  9999
2 24907  86.4003 217.4726 0002483  84.8435 275.3045 14.35555294421368
DUMMY MASS 1            
1 24925U 97048A   24287.41292011  .00001780  00000+0  19819-3 0  9999
2 24925  86.3321 249.3240 0004773 318.6868  41.3995 14.86507966468463
DUMMY MASS 2            
1 24926U 97048B   24287.46884490  .00001804  00000+0  20215-3 0  9992
2 24926  86.3321 250.8620 0005963 330.2151  29.8733 14.86263720468255
IRIDIUM 29              
1 24944U 97051A   24287.51150601  .00001847  00000+0  62956-3 0  9997
2 24944  86.3934 247.2621 0002453  81.8633 278.2842 14.36001825417864
IRIDIUM 33              
1 24946U 97051C   24287.44259389  .00001337  00000+0  46661-3 0  9993
2 24946  86.3852 246.5372 0008733 148.3150 211.8574 14.34570425417365
IRIDIUM 28              
1 24948U 97051E   24287.50652804  .00001773  00000+0  59266-3 0  9990
2 24948  86.3946 244.9190 0002506  96.1694 263.9789 14.36950098418419
